HAWK-C                  
1 43799U 18099AT  26068.67261865  .00009431  00000+0  35663-3 0  9994
2 43799  97.4027 122.6817 0040363 277.4052  82.2601 15.26407167398720
STARLINK-32358          
1 61531U 24183Y   26068.49923829  .00000539  00000+0  30326-4 0  9996
2 61531  53.1606 143.3115 0001112  95.3145 264.7983 15.30187982 79626
