[{"OBJECT_NAME":"HAWK-C","OBJECT_ID":"2018-099AT","EPOCH":"2026-03-09T16:08:34.251360","MEAN_MOTION":15.26407167,"ECCENTRICITY":0.00403625,"INCLINATION":97.4027,"RA_OF_ASC_NODE":122.6817,"ARG_OF_PERICENTER":277.4052,"MEAN_ANOMALY":82.2601,"EPHEMERIS_TYPE":0,"CLASSIFICATION_TYPE":"U","NORAD_CAT_ID":43799,"ELEMENT_SET_NO":999,"REV_AT_EPOCH":39872,"BSTAR":0.00035662773,"MEAN_MOTION_DOT":9.431e-5,"MEAN_MOTION_DDOT":0},{"OBJECT_NAME":"STARLINK-32358","OBJECT_ID":"2024-183Y","EPOCH":"2026-03-09T11:58:54.188256","MEAN_MOTION":15.30187982,"ECCENTRICITY":0.00011129,"INCLINATION":53.1606,"RA_OF_ASC_NODE":143.3115,"ARG_OF_PERICENTER":95.3145,"MEAN_ANOMALY":264.7983,"EPHEMERIS_TYPE":0,"CLASSIFICATION_TYPE":"U","NORAD_CAT_ID":61531,"ELEMENT_SET_NO":999,"REV_AT_EPOCH":7962,"BSTAR":3.0325626e-5,"MEAN_MOTION_DOT":5.39e-6,"MEAN_MOTION_DDOT":0}]
